"idcompany","cname","address","city","country","postcode","contact","url"
"c1","Air Mancur","Jl. Mataram No. 1 Kel. Selong Kec. Kebayoran Baru","Jakarta Selatan","Indonesia","12110","021-428 00575 / 021-428 00577","http://www.airmancur.co.id"
"c2","Al - Barokah","","","","","",""
"c3","Asy-Syifa","","","","","",""
"c4","Bunga Teratai","","","","","",""
"c5","Citidirect International Indonesia","","","","","",""
"c6","CV Amarthasada Permas","","","","","",""
"c7","CV. Abad Dua Satu Makmur","","","","","",""
"c8","CV. Abdi Walidain","","","","","",""
"c9","CV. Afiro Medika","","","","","",""
"c10","CV. Agaricus Sido Makmur Sentosa","","","","","",""
"c11","CV. AGUNG MEDICA INDONESIA","","","","","",""
"c12","CV. Agung Sejahtera Sejati","","","","","",""
"c13","CV. AKAR PINANG INDONESIA","","","","","",""
"c14","CV. Al Manar Herbafit","","","","","",""
"c15","CV. Alam Aulia","","","","","",""
"c16","CV. Alvi Sahrin","","","","","",""
"c17","CV. AN` NUR","","","","","",""
"c18","CV. Annissa Laboratories","","","","","",""
"c19","CV. Anugerah Alam Abadi","","","","","",""
"c20","CV. Aren Prima laboratories","","","","","",""
"c21","CV. Awena Adi Lestari","","","","","",""
"c22","CV. Basmallah Food","","","","","",""
"c23","CV. Bintang Jaya Farma","","","","","",""
"c24","CV. Bunga","","","","","",""
"c25","CV. Burung Walet Dua Mas","","","","","",""
"c26","CV. Cipta Jaya","","","","","",""
"c27","CV. Citra Dayak Kapuas","","","","","",""
"c28","CV. Citra Mandiri","","","","","",""
"c29","CV. Country Diamond","","","","","",""
"c30","CV. De Mbe Dhiba Farma","","","","","",""
"c31","CV. Dera Alfrima","","","","","",""
"c32","CV. Dunia Sehat","","","","","",""
"c33","CV. Eka Pratama Farmasindo","","","","","",""
"c34","CV. Fitrah","","","","","",""
"c35","CV. Flora dan Fauna Herbal Indonesia","","","","","",""
"c36","CV. Gajah Mas","","","","","",""
"c37","CV. Graha Medika Husada","","","","","",""
"c38","CV. Harvest Gorontalo Indonesia","","","","","",""
"c39","CV. HERBACARE 99","","","","","",""
"c40","CV. Herbacure 99","","","","","",""
"c41","CV. Herbal Insani","","","","","",""
"c42","CV. Herbalindo","","","","","",""
"c43","CV. HERBALTAMA PERSADA","","","","","",""
"c44","CV. HSB Farma","","","","","",""
"c45","CV. IKS Bukit Naga Mas","","","","","",""
"c46","CV. Indoherbal Mandiri Indonesia","","","","","",""
"c47","CV. Indovicco","","","","","",""
"c48","CV. Internesia","","","","","",""
"c49","CV. Inti Sumatra Global Bioscience","","","","","",""
"c50","CV. Intisari Tanaman Indonesia","","","","","",""
"c51","CV. Jamu Putra Serang","","","","","",""
"c52","CV. Jamu Tradisional T. Djojo","","","","","",""
"c53","CV. Jangkar Mas","","","","","",""
"c54","CV. Jaya Herbal","","","","","",""
"c55","CV. Kartini","","","","","",""
"c56","CV. Koonsfito Farmaca","","","","","",""
"c57","CV. Liyaudin Lasalimu","","","","","",""
"c58","CV. Luqman Herbal","","","","","",""
"c59","CV. Luxindo Farma","","","","","",""
"c60","CV. Mahkota Sari Reymasindo","","","","","",""
"c61","CV. Martono Jaya Utama","","","","","",""
"c62","CV. Mega Maju Mekar","","","","","",""
"c63","CV. Merapi Farma","","","","","",""
"c64","CV. Merpati Putih","","","","","",""
"c65","CV. Mitra Sejahtera Bersama","","","","","",""
"c66","CV. Morinda Mitra Sejati","","","","","",""
"c67","CV. MUHAMMADIN CORP.","","","","","",""
"c68","CV. Multisari Persada","","","","","",""
"c69","CV. Mutiara Sakti","","","","","",""
"c70","CV. Naga Mas","","","","","",""
"c71","CV. Naturaid","","","","","",""
"c72","CV. Natural Hilife","","","","","",""
"c73","CV. Nizar Hasan","","","","","",""
"c74","CV. Nurusy - Syifa","","","","","",""
"c75","CV. Nusantara Buana Surya","","","","","",""
"c76","CV. Prima Sari","","","","","",""
"c77","CV. Pusaka Dhevy Farma","","","","","",""
"c78","CV. Pusat Pengolahan Kelapa Terpadu","","","","","",""
"c79","CV. Puspita Dewi","","","","","",""
"c80","CV. Putra Pratama","","","","","",""
"c81","CV. Raja Benua Mas","","","","","",""
"c82","CV. Rajawali Indosakti","","","","","",""
"c83","CV. Rajawali Perkasa","","","","","",""
"c84","CV. Rajawali Sakti","","","","","",""
"c85","CV. Rizka Tegar Mulia","","","","","",""
"c86","CV. Saga Sehat Bersama","","","","","",""
"c87","CV. Salsa Wangi","","","","","",""
"c88","CV. Sanjaya Makmur Perkasa","","","","","",""
"c89","CV. Santri","","","","","",""
"c90","CV. Sari Bumi Farma","","","","","",""
"c91","CV. Sari Bumi Sakti","","","","","",""
"c92","CV. SAS","","","","","",""
"c93","CV. Sehat Murni Sejahtera","","","","","",""
"c94","CV. Sejahtera Fitofarma","","","","","",""
"c95","CV. Semoga Jaya","","","","","",""
"c96","CV. Setia Jaya","","","","","",""
"c97","CV. Sidoluhur Mandiri","","","","","",""
"c98","CV. Sidomulyo","","","","","",""
"c99","CV. Sinar Mujarab","","","","","",""
"c100","CV. Sitiara","","","","","",""
"c101","CV. Sumber Dinamis Indonesia","","","","","",""
"c102","CV. Sumber Sari","","","","","",""
"c103","CV. Sunking","","","","","",""
"c104","CV. Syifana Berkah Makmur","","","","","",""
"c105","CV. Tanamas","","","","","",""
"c106","CV. Tiga Aja Safira","","","","","",""
"c107","CV. Tiga Kelapa Mandiri","","","","","",""
"c108","CV. Tirta Cahaya Alam","","","","","",""
"c109","CV. Tirta Mustika Biru","","","","","",""
"c110","CV. Tri Utami Jaya","","","","","",""
"c111","CV. Trimitra Agung Farma","","","","","",""
"c112","CV. Vermindo International","","","","","",""
"c113","CV. Vicomas Internasional","","","","","",""
"c114","CV. Wahyu Illahi","","","","","",""
"c115","CV. Walet Puti","","","","","",""
"c116","CV. Wijaya Makmur Abadi","","","","","",""
"c117","CV. Wijaya Sentosa","","","","","",""
"c118","CV. William Thrah","","","","","",""
"c119","CV. Zalba","","","","","",""
"c120","Darwin Jamu Godok Indonesia","","","","","",""
"c121","Daun Teratai","","","","","",""
"c122","Dewa Honey","","","","","",""
"c123","Duta Hong Herbal Indonesia","","","","","",""
"c124","FA. Berkat Jaya","","","","","",""
"c125","Firma Miki Jaya","","","","","",""
"c126","Gada Sakti","","","","","",""
"c127","Herbal Jaya","","","","","",""
"c128","Herbalindo Citra Mandiri","","","","","",""
"c129","IKOT Al Ghuroba","","","","","",""
"c130","IKOT Alfiyah","","","","","",""
"c131","IKOT Auto Deck","","","","","",""
"c132","IKOT Bokashi","","","","","",""
"c133","IKOT Cap Daun","","","","","",""
"c134","IKOT Cap Tiga Ikan","","","","","",""
"c135","IKOT Gunung Samudra","","","","","",""
"c136","IKOT HU JAYA","","","","","",""
"c137","IKOT Ika Satria","","","","","",""
"c138","IKOT Inti Sumatera Gobal Bioscience","","","","","",""
"c139","IKOT Itarindo","","","","","",""
"c140","IKOT Jampi Praban","","","","","",""
"c141","IKOT Jamu Mustika Asli Madura","","","","","",""
"c142","IKOT Jamu Putri Gunung Jati","","","","","",""
"c143","IKOT Jamu Sariningrum","","","","","",""
"c144","IKOT Kampoeng Herba","","","","","",""
"c145","IKOT Pasagro (CV. Yandesfegal Group)","","","","","",""
"c146","IKOT Permonojati","","","","","",""
"c147","IKOT Prono Jiwo","","","","","",""
"c148","IKOT Ragil Putra","","","","","",""
"c149","IKOT Rhizoma","","","","","",""
"c150","IKOT Rolid","","","","","",""
"c151","IKOT Salama Nusantara","","","","","",""
"c152","IKOT Salamah Food","","","","","",""
"c153","IKOT Sembilan intan","","","","","",""
"c154","IKOT SKU (Sinar Kemilau Ungu)","","","","","",""
"c155","IKOT Talenta Wijaya","","","","","",""
"c156","IKOT Wen Spa","","","","","",""
"c157","IKOT Yayasan Sarana Bhakti","","","","","",""
"c158","IKOT. Al - Afiah","","","","","",""
"c159","IKOT. Al Hasanah","","","","","",""
"c160","IKOT. Al Hidayah","","","","","",""
"c161","IKOT. Al-Qomar","","","","","",""
"c162","IKOT. Alam Sari","","","","","",""
"c163","IKOT. Alfisalam VCO (AVCOL)","","","","","",""
"c164","IKOT. An Nuur","","","","","",""
"c165","IKOT. Anak Singa","","","","","",""
"c166","IKOT. Atsiri Jamalindo","","","","","",""
"c167","IKOT. Barokah","","","","","",""
"c168","IKOT. Bayudewa Sejahtera","","","","","",""
"c169","IKOT. Bintang Mas","","","","","",""
"c170","IKOT. Budi Lestari","","","","","",""
"c171","IKOT. Cap Bambu","","","","","",""
"c172","IKOT. Cap Tiga Ikan","","","","","",""
"c173","IKOT. Cipta Madura","","","","","",""
"c174","IKOT. Citra Alam Sentosa","","","","","",""
"c175","IKOT. Daun Sehat","","","","","",""
"c176","IKOT. Dewi Racik","","","","","",""
"c177","IKOT. Dharma Husada","","","","","",""
"c178","IKOT. FA. Berkat Jaya","","","","","",""
"c179","IKOT. Farisanu Mobatas","","","","","",""
"c180","IKOT. Galuh Aji","","","","","",""
"c181","IKOT. Griya Jamu Suket Gendong","","","","","",""
"c182","IKOT. Gunung Pancoran","","","","","",""
"c183","IKOT. Handoko","","","","","",""
"c184","IKOT. Helta","","","","","",""
"c185","IKOT. Herba Bagus","","","","","",""
"c186","IKOT. Hudzaifah Qahira Food","","","","","",""
"c187","IKOT. Ibu Kasim","","","","","",""
"c188","IKOT. Ibu R. Ningsih","","","","","",""
"c189","IKOT. Jamu Garuda","","","","","",""
"c190","IKOT. Jamu Helbeh Cap Onta","","","","","",""
"c191","IKOT. Jamu Lanang","","","","","",""
"c192","IKOT. Jamu Putri Kahyangan","","","","","",""
"c193","IKOT. Kapan Anda","","","","","",""
"c194","IKOT. KBJ Kem Kem","","","","","",""
"c195","IKOT. Kencono Super","","","","","",""
"c196","IKOT. Kholariz","","","","","",""
"c197","IKOT. KIA","","","","","",""
"c198","IKOT. Kujaya Farma","","","","","",""
"c199","IKOT. Liang Liong","","","","","",""
"c200","IKOT. Madu Brotowali","","","","","",""
"c201","IKOT. Mahkota Madura","","","","","",""
"c202","IKOT. Mahkota Rizki","","","","","",""
"c203","IKOT. Melati","","","","","",""
"c204","IKOT. Mustika Madura","","","","","",""
"c205","IKOT. Mustika Mas","","","","","",""
"c206","IKOT. Nikisari","","","","","",""
"c207","IKOT. Ny. Hadi","","","","","",""
"c208","IKOT. Ny. Sumiati BRB","","","","","",""
"c209","IKOT. Nyior Koneng","","","","","",""
"c210","IKOT. Pabbura Ugi","","","","","",""
"c211","IKOT. Pancaran Hidup Sehat","","","","","",""
"c212","IKOT. Pemanah","","","","","",""
"c213","IKOT. Perusahaan Jamu Ibu Sri","","","","","",""
"c214","IKOT. Prakasita Sekar Mataram","","","","","",""
"c215","IKOT. Pusaka Ibu Madura","","","","","",""
"c216","IKOT. Pusoko Sejati","","","","","",""
"c217","IKOT. Putri Waso","","","","","",""
"c218","IKOT. Qolbun Salim","","","","","",""
"c219","IKOT. Rachmat","","","","","",""
"c220","IKOT. Ragil Putra","","","","","",""
"c221","IKOT. Ridhallah","","","","","",""
"c222","IKOT. Sari Manjur","","","","","",""
"c223","IKOT. Sekar Arum","","","","","",""
"c224","IKOT. Sekar Kedaton","","","","","",""
"c225","IKOT. Sekar Kusuma","","","","","",""
"c226","IKOT. Sembilan Mutiara","","","","","",""
"c227","IKOT. Sengkolan Potre Koneng (Armos)","","","","","",""
"c228","IKOT. Si Jagad Alami","","","","","",""
"c229","IKOT. Sri Haryanto","","","","","",""
"c230","IKOT. Sumber Manggis","","","","","",""
"c231","IKOT. Sungai Duri","","","","","",""
"c232","IKOT. Tamali Jaya","","","","","",""
"c233","IKOT. Tradisional Ibu Dewi","","","","","",""
"c234","IKOT. Tusanco","","","","","",""
"c235","IKOT. Wahyu Sejati","","","","","",""
"c236","IOT Sari Sehat qq PT. Capung Indah Abadi","","","","","",""
"c237","Jamu Borobudur","","","","","",""
"c238","Jamu Iboe","","","","","",""
"c239","Jamu Pusaka Endatu Cap Singa Dua","","","","","",""
"c240","Jamu Puspo","","","","","",""
"c241","Kalimbubu Putra Mandiri","","","","","",""
"c242","Koperasi Koliga","","","","","",""
"c243","Kopja Aneka Sari Unit I Mekar Sari 1","","","","","",""
"c244","Kopja Aneka Sari Unit II Sembung Jaya 1","","","","","",""
"c245","Kopja Aneka Sari Unit III Gunung Sugih 1","","","","","",""
"c246","Kopja Aneka Sari Unit V Kukuh Jaya","","","","","",""
"c247","Kopja Aneka Sari Unit VI Jati Sari","","","","","",""
"c248","Kopja Aneka Sari Unit VII Ngudi Rahayu","","","","","",""
"c249","Kopja Aneka Sari Unit VIII Ampuh Jaya","","","","","",""
"c250","Kopja Aneka Sari Unit X Rajawali","","","","","",""
"c251","Kopja Aneka Sari Unit XI Sari Manjur 1","","","","","",""
"c252","Kopja Aneka Sari Unit XII Gitabuana","","","","","",""
"c253","KOPJA Sabuk Kuning","","","","","",""
"c254","Kopja Sabuk Kuning Unit V","","","","","",""
"c255","KPPT Mekar Sari","","","","","",""
"c256","Micola","","","","","",""
"c257","Minyak Mutiara Hitam","","","","","",""
"c258","NM Air Embun","","","","","",""
"c259","PD. An Nuur","","","","","",""
"c260","PD. Bulan Purnama","","","","","",""
"c261","PD. Eltra Raya Perkasa","","","","","",""
"c262","PD. Gusco","","","","","",""
"c263","PD. Jasa Nusantara","","","","","",""
"c264","PD. Ramuan Manjur","","","","","",""
"c265","PD. Rosari","","","","","",""
"c266","PD. Sahara","","","","","",""
"c267","PD. Samsu","","","","","",""
"c268","PD. Sinar Bokor Mas","","","","","",""
"c269","PD. Teh Krisan Singkawang","","","","","",""
"c270","PJ. Ada Rasa","","","","","",""
"c271","PJ. Agaricus Sidomakmur Sentosa","","","","","",""
"c272","PJ. Aiki","","","","","",""
"c273","PJ. Air Pusaka","","","","","",""
"c274","PJ. Akar Maya","","","","","",""
"c275","PJ. Akar Sari","","","","","",""
"c276","PJ. Akar Seribu","","","","","",""
"c277","PJ. Al Ghuroba","","","","","",""
"c278","PJ. Aladin","","","","","",""
"c279","PJ. Alam Subur Manjur","","","","","",""
"c280","PJ. Amar Sakti Jaya","","","","","",""
"c281","PJ. Amm Sina","","","","","",""
"c282","PJ. Andarina","","","","","",""
"c283","PJ. Angsa","","","","","",""
"c284","PJ. Anoman","","","","","",""
"c285","PJ. Anugerah Sehat","","","","","",""
"c286","PJ. Bangun Kasih Herbalindo","","","","","",""
"c287","PJ. Barokah Putri Kembar","","","","","",""
"c288","PJ. Bayudewa Sejahtera","","","","","",""
"c289","PJ. Bintang","","","","","",""
"c290","PJ. Bintang Anugerah","","","","","",""
"c291","PJ. Bintang Bumi","","","","","",""
"c292","PJ. Bintang Lima","","","","","",""
"c293","PJ. Bintang Timur","","","","","",""
"c294","PJ. Bisma Sehat","","","","","",""
"c295","PJ. Bu Belina","","","","","",""
"c296","PJ. Bu Slamet","","","","","",""
"c297","PJ. Cap Bajing","","","","","",""
"c298","PJ. Cap Burung Kasuari","","","","","",""
"c299","PJ. Cap Joglo","","","","","",""
"c300","PJ. Cap Klanceng","","","","","",""
"c301","PJ. Cap Kresno Narodo","","","","","",""
"c302","PJ. Cap Kuda","","","","","",""
"c303","PJ. Cap Merpati","","","","","",""
"c304","PJ. Cap Naga Mas","","","","","",""
"c305","PJ. CAP ORANG TANI","","","","","",""
"c306","PJ. Cap Pak Tani","","","","","",""
"c307","PJ. Cap Sumbodro","","","","","",""
"c308","PJ. Cap Tiga IKan","","","","","",""
"c309","PJ. Cap Tiga Wanita Ny. Girang","","","","","",""
"c310","PJ. Caping Gunung","","","","","",""
"c311","PJ. Ching Lung","","","","","",""
"c312","PJ. Cipta Rasa","","","","","",""
"c313","PJ. Daun Emas","","","","","",""
"c314","PJ. Dewa Dewi","","","","","",""
"c315","PJ. Dhoho","","","","","",""
"c316","PJ. Doro","","","","","",""
"c317","PJ. Dr Eko Wahjuni","","","","","",""
"c318","PJ. Dr. Sardjito","","","","","",""
"c319","PJ. Dwi Tunggal Jaya","","","","","",""
"c320","PJ. El Shaddai","","","","","",""
"c321","PJ. Emak Deprok","","","","","",""
"c322","PJ. Firdha Prima","","","","","",""
"c323","PJ. Gading Sari","","","","","",""
"c324","PJ. Gatot Kaca","","","","","",""
"c325","PJ. Global Marine Prima","","","","","",""
"c326","PJ. Guna Sehat","","","","","",""
"c327","PJ. Gunung Alam","","","","","",""
"c328","PJ. Gunung Subur","","","","","",""
"c329","PJ. Hasim Golanding","","","","","",""
"c330","PJ. Herba Medika","","","","","",""
"c331","PJ. Herbal Mas","","","","","",""
"c332","PJ. Herbal Nusantara","","","","","",""
"c333","PJ. IBU TJIPTO","","","","","",""
"c334","PJ. Idhi Boeyoet","","","","","",""
"c335","PJ. Indo Sari Raya","","","","","",""
"c336","PJ. Indra","","","","","",""
"c337","PJ. Jago Gulat","","","","","",""
"c338","PJ. Jalak Sakti","","","","","",""
"c339","PJ. Jamrud Khatulistiwa","","","","","",""
"c340","PJ. Jamu Dayang Sumbi","","","","","",""
"c341","PJ. Janor Koneng","","","","","",""
"c342","PJ. Jasem","","","","","",""
"c343","PJ. Jaya Guna","","","","","",""
"c344","PJ. Jayadipa Putera","","","","","",""
"c345","PJ. Jitu","","","","","",""
"c346","PJ. JM","","","","","",""
"c347","PJ. Joedhistira","","","","","",""
"c348","PJ. K.I.I Cap Karapan","","","","","",""
"c349","PJ. Kadarwati","","","","","",""
"c350","PJ. Kala Gemilang","","","","","",""
"c351","PJ. KATES","","","","","",""
"c352","PJ. Kembang Dunia","","","","","",""
"c353","PJ. Klanceng","","","","","",""
"c354","PJ. Kuda Mas","","","","","",""
"c355","PJ. Langgeng Jaya","","","","","",""
"c356","PJ. Langgeng Sehat","","","","","",""
"c357","PJ. Lestari Jaya","","","","","",""
"c358","PJ. Lipan Jaya Sakti","","","","","",""
"c359","PJ. Madu Nusantara","","","","","",""
"c360","PJ. Mahkota Rizki","","","","","",""
"c361","PJ. Mahkota Wijaya Kusuma","","","","","",""
"c362","PJ. Minyak Ramuan Ciptaan Leluhur (Miracle)","","","","","",""
"c363","PJ. Mitro Rahajoe","","","","","",""
"c364","PJ. Monggo Mas","","","","","",""
"c365","PJ. Mudjiono Gunawan","","","","","",""
"c366","PJ. Mulia Abadi","","","","","",""
"c367","PJ. Mutiara Banjar","","","","","",""
"c368","PJ. Nakula Sadewa","","","","","",""
"c369","PJ. Narodo","","","","","",""
"c370","PJ. Nupharma","","","","","",""
"c371","PJ. Ny. Badriyah","","","","","",""
"c372","PJ. Nyonya Asam","","","","","",""
"c373","PJ. Nyonya Simping Cap Kelapa Jenggi","","","","","",""
"c374","PJ. ORIENTAL","","","","","",""
"c375","PJ. Partono","","","","","",""
"c376","PJ. Paten","","","","","",""
"c377","PJ. Peng An","","","","","",""
"c378","PJ. Pharmindo Sakti Bengawan Solo","","","","","",""
"c379","PJ. Podang Mas","","","","","",""
"c380","PJ. Pucuk Sirih","","","","","",""
"c381","PJ. Pujiono Onnarso Woen","","","","","",""
"c382","PJ. PUNTODEWO","","","","","",""
"c383","PJ. Pusoko Pipisan","","","","","",""
"c384","PJ. Puspita Jelita","","","","","",""
"c385","PJ. Puspita Madura","","","","","",""
"c386","PJ. Putra Galuh","","","","","",""
"c387","PJ. Putra Rakyat jaya","","","","","",""
"c388","PJ. Putri Delima","","","","","",""
"c389","PJ. Putri Kahyangan","","","","","",""
"c390","PJ. Putri Sakti","","","","","",""
"c391","PJ. Putri Sejati","","","","","",""
"c392","PJ. Putro Kinasih","","","","","",""
"c393","PJ. Ratulangi","","","","","",""
"c394","PJ. Roda Dunia","","","","","",""
"c395","PJ. Sabdo Jodo","","","","","",""
"c396","PJ. Sabdo Palon","","","","","",""
"c397","PJ. Sansidarta","","","","","",""
"c398","PJ. Sapta Sari","","","","","",""
"c399","PJ. Sapu Jagad","","","","","",""
"c400","PJ. Sapu Jagat","","","","","",""
"c401","PJ. Sari Puri","","","","","",""
"c402","PJ. Sari Sehat","","","","","",""
"c403","PJ. Sari Wangi","","","","","",""
"c404","PJ. Sehat Bahagia Keluarga","","","","","",""
"c405","PJ. Sekar Ayu","","","","","",""
"c406","PJ. Sekar Mawar","","","","","",""
"c407","PJ. Serbuk Sari","","","","","",""
"c408","PJ. Serbuk Super","","","","","",""
"c409","PJ. Sergai","","","","","",""
"c410","PJ. Shinshe Tan","","","","","",""
"c411","PJ. Siang Siang Product","","","","","",""
"c412","PJ. Sidijodo","","","","","",""
"c413","PJ. Sido Jodo","","","","","",""
"c414","PJ. Sinar Cemerlang","","","","","",""
"c415","PJ. Sinar Sehat","","","","","",""
"c416","PJ. Singa Mas","","","","","",""
"c417","PJ. Sinshe Tan","","","","","",""
"c418","PJ. Sri Cahyo Ny. Senter","","","","","",""
"c419","PJ. Srigading","","","","","",""
"c420","PJ. Star VCO Colomadu-Karanganyar","","","","","",""
"c421","PJ. Sugriwo Subali","","","","","",""
"c422","PJ. Sumber Rejeki","","","","","",""
"c423","PJ. Sumber Sukses Abadi","","","","","",""
"c424","PJ. Sumbodro","","","","","",""
"c425","PJ. Suryo","","","","","",""
"c426","PJ. Teratai","","","","","",""
"c427","PJ. Tiga Juara Olah Raga","","","","","",""
"c428","PJ. Tiga Puspa","","","","","",""
"c429","PJ. Tiga Saudara","","","","","",""
"c430","PJ. Tingbao (Cap Semar)","","","","","",""
"c431","PJ. Tjap Lampoe","","","","","",""
"c432","PJ. Tresna","","","","","",""
"c433","PJ. Trisno Cipta Usaha","","","","","",""
"c434","PJ. Tumbuh Lestari","","","","","",""
"c435","PJ. Tunggal Mapan","","","","","",""
"c436","PJ. Usadha Santhika Bali","","","","","",""
"c437","PJ. Usaha Dawa Alam","","","","","",""
"c438","PJ. Usaha Tradisional Minyak Padi","","","","","",""
"c439","PJ. Vitaher","","","","","",""
"c440","PJ. Wahyu Ilalloh","","","","","",""
"c441","PJ. Walikukun","","","","","",""
"c442","PJ. Warisan Satu","","","","","",""
"c443","PJ. Wisnu","","","","","",""
"c444","PJ. Zanet Purbaci (Mafrukhan)","","","","","",""
"c445","PJ. Zen Surabaya","","","","","",""
"c446","PJ.Warisan Jaya","","","","","",""
"c447","PT, Jamu Indonesia Simona","","","","","",""
"c448","PT. Afi Farma","","","","","",""
"c449","PT. Afis Prima Perdana","","","","","",""
"c450","PT. Air Mancur","","","","","",""
"c451","PT. Aka Natural Medika","","","","","",""
"c452","PT. Akar Pinang","","","","","",""
"c453","PT. Alam Sehat Nusantara","","","","","",""
"c454","PT. Alomampa Persada","","","","","",""
"c455","PT. Aneka Coffee Industry","","","","","",""
"c456","PT. Aquasolve Sanaria","","","","","",""
"c457","PT. ARTA MITRA SEJAHTERA","","","","","",""
"c458","PT. Arteri Megah","","","","","",""
"c459","PT. Artois Pharmaceutical Indonesia, Ltd.","","","","","",""
"c460","PT. Asiatama Agromakmur","","","","","",""
"c461","PT. Asoka Waja Wisesa","","","","","",""
"c462","PT. Avcennia Multi Sainteknika","","","","","",""
"c463","PT. Ayu Naturally Cemerlang","","","","","",""
"c464","PT. Azet Putra Cemerlang","","","","","",""
"c465","PT. Balatif","","","","","",""
"c466","PT. Bee Toba Makassar","","","","","",""
"c467","PT. Berial Sumber Medica","","","","","",""
"c468","PT. Berkat Nadah Agung","","","","","",""
"c469","PT. Berkat Shanghai Hanjiang","","","","","",""
"c470","PT. Berlico Mulia Farma","","","","","",""
"c471","PT. Bernofarm","","","","","",""
"c472","PT. BIDADARI","","","","","",""
"c473","PT. Bintang Baruna Global","","","","","",""
"c474","PT. Bintang Toedjoe","","","","","",""
"c475","PT. Bio Phytopharma Lab.","","","","","",""
"c476","PT. Bio-Life Medilab","","","","","",""
"c477","PT. Biofarmaka Indonesia","","","","","",""
"c478","PT. Biovit Nutraceutical (PT. Tropica Mas )","","","","","",""
"c479","PT. Biovit Nutraceutical Farma","","","","","",""
"c480","PT. Bunga Ros","","","","","",""
"c481","PT. Cahaya Biru","","","","","",""
"c482","PT. Cahaya Biru Medan","","","","","",""
"c483","PT. Candi Mas Purba Salma","","","","","",""
"c484","PT. Candra Nusantara Jaya","","","","","",""
"c485","PT. Capung Indah Abadi","","","","","",""
"c486","PT. Cempaka Tohpati Sejahtera","","","","","",""
"c487","PT. Cendo Industri Farmasi","","","","","",""
"c488","PT. Chandra Nusantara Jaya","","","","","",""
"c489","PT. Cipta Sehat Sejati","","","","","",""
"c490","PT. Citra Deli Kreasitama","","","","","",""
"c491","PT. Citra Giga Agrotama","","","","","",""
"c492","PT. Ciubros Farma","","","","","",""
"c493","PT. Combiphar","","","","","",""
"c494","PT. Coronet Crown","","","","","",""
"c495","PT. Corsa Industries","","","","","",""
"c496","PT. Cussons Indonesia","","","","","",""
"c497","PT. Dami Sariwana","","","","","",""
"c498","PT. Dankos Farma","","","","","",""
"c499","PT. Daxen Indonesia","","","","","",""
"c500","PT. Deltomed Laboratories","","","","","",""
"c501","PT. Dewa","","","","","",""
"c502","PT. Dewi ratu mandiri","","","","","",""
"c503","PT. Dexa Medica","","","","","",""
"c504","PT. Dexa Medica (PT. Ferron Par Pharmaceutical)","","","","","",""
"c505","PT. Dimensi Rizky Abadi","","","","","",""
"c506","PT. Dipa Pharmalab Intersains","","","","","",""
"c507","PT. Dragon Prima Farma","","","","","",""
"c508","PT. Duta Herba Masindo","","","","","",""
"c509","PT. Eagle Indo Pharma","","","","","",""
"c510","PT. Eglin Pharma","","","","","",""
"c511","PT. Erela","","","","","",""
"c512","PT. Erlimpex","","","","","",""
"c513","PT. Esa Mulia","","","","","",""
"c514","PT. Fabindo Sejahtera","","","","","",""
"c515","PT. Fastabiq","","","","","",""
"c516","PT. Ferron Par Pharmaceuticals","","","","","",""
"c517","PT. Fitrah Fitofarma","","","","","",""
"c518","PT. Fraksindo Almira","","","","","",""
"c519","PT. Gemilang Sakti Farmindo","","","","","",""
"c520","PT. Golden Millenium Manufacturing","","","","","",""
"c521","PT. Gondo Wangi Sariaji","","","","","",""
"c522","PT. Gondowangi Tradisional Kosmetika","","","","","",""
"c523","PT. Graha Farma","","","","","",""
"c524","PT. Granindo","","","","","",""
"c525","PT. Gratia Husada Farma","","","","","",""
"c526","PT. Green Herba International","","","","","",""
"c527","PT. Guardian Pharmatama","","","","","",""
"c528","PT. Gujati Lima Puluh Sembilan Utama","","","","","",""
"c529","PT. Gunung Hijau Lestari","","","","","",""
"c530","PT. Habbatussauda International","","","","","",""
"c531","PT. Haldin Pacific Semesta","","","","","",""
"c532","PT. Hanaka Farmasindo","","","","","",""
"c533","PT. Hari Fatma","","","","","",""
"c534","PT. Harmoni Dinamika Indonesia","","","","","",""
"c535","PT. Harsen Laboratories","","","","","",""
"c536","PT. Health Morinda Indonesia","","","","","",""
"c537","PT. Heksatamaprima","","","","","",""
"c538","PT. Helmigs Prima Sejahtera","","","","","",""
"c539","PT. Heptasari Unggul","","","","","",""
"c540","PT. Herba Aneka Semesta","","","","","",""
"c541","PT. Herba Khasiat","","","","","",""
"c542","PT. Herba Medica Cosmetindo","","","","","",""
"c543","PT. Herba Medica Indonesia","","","","","",""
"c544","PT. Herbal Power Indonesia","","","","","",""
"c545","PT. Herbanugraha","","","","","",""
"c546","PT. Hexpharm Jaya","","","","","",""
"c547","PT. Holistic Bio-Medicine","","","","","",""
"c548","PT. Hortikindo Modernaraya","","","","","",""
"c549","PT. Hudson Indonesia","","","","","",""
"c550","PT. Ifars Pharmaceutical Laboratories","","","","","",""
"c551","PT. Igatama Nusantara Permai","","","","","",""
"c552","PT. Ikapharmindo Putramas","","","","","",""
"c553","PT. Ikapharmindo Putramas (IOT)","","","","","",""
"c554","PT. Ikong Pharmaceutical Industry","","","","","",""
"c555","PT. Imfarmind Farmasi industri","","","","","",""
"c556","PT. Indo Abadi Sarimakmur","","","","","",""
"c557","PT. Indo Karya Farma","","","","","",""
"c558","PT. Indofarma","","","","","",""
"c559","PT. Indopas Indonesia","","","","","",""
"c560","PT. Indorica Perdana Farma","","","","","",""
"c561","PT. Industri Jamu & Farmasi Cap JAGO","","","","","",""
"c562","PT. Industri Jamu Borobudur","","","","","",""
"c563","PT. Inovasi Mitra Sukses","","","","","",""
"c564","PT. Insan Indofarma","","","","","",""
"c565","PT. Interbat","","","","","",""
"c566","PT. Irawan Djaja Agung","","","","","",""
"c567","PT. Ixora Berjalin Mitra","","","","","",""
"c568","PT. Jamu Iboe Jaya","","","","","",""
"c569","PT. Jamu Indonesia Simona","","","","","",""
"c570","PT. Jamu Puspo Internusa","","","","","",""
"c571","PT. Jatipurna Indonesia","","","","","",""
"c572","PT. Javanessia","","","","","",""
"c573","PT. Jaya Nusantara Dipa Husada","","","","","",""
"c574","PT. Jitu","","","","","",""
"c575","PT. Kalbe Farma","","","","","",""
"c576","PT. Kalbe Farma Tbk ( PT.Bintang Toedjoe)","","","","","",""
"c577","PT. Kaliroto","","","","","",""
"c578","PT. Kambing Prima Leotangkas","","","","","",""
"c579","PT. Karya Jaya Dunia","","","","","",""
"c580","PT. Kawi Tradisional","","","","","",""
"c581","PT. Kembang Bulan","","","","","",""
"c582","PT. Kimberal","","","","","",""
"c583","PT. Kimia Farma","","","","","",""
"c584","PT. Kimia Farma (IOT)","","","","","",""
"c585","PT. KinoAid Indonesia","","","","","",""
"c586","PT. Konimex","","","","","",""
"c587","PT. Konimex (IOT)","","","","","",""
"c588","PT. Lapi Laboratories","","","","","",""
"c589","PT. Laupan Mandiri","","","","","",""
"c590","PT. Leo Agung Raya","","","","","",""
"c591","PT. Liza Herbal International","","","","","",""
"c592","PT. Lucas Jaya","","","","","",""
"c593","PT. Mahakam Beta Farma","","","","","",""
"c594","PT. Maharani Altomaris Sarinatural","","","","","",""
"c595","PT. Mahkotadewa Indonesia","","","","","",""
"c596","PT. Makmur Sejati Internusa","","","","","",""
"c597","PT. Manuasa Harapan","","","","","",""
"c598","PT. Marguna Tarulata Apk. Farma","","","","","",""
"c599","PT. Marin Liza Farma","","","","","",""
"c600","PT. Martina Berto","","","","","",""
"c601","PT. Maryong Mondo","","","","","",""
"c602","PT. Mecosin Indonesia","","","","","",""
"c603","PT. Meddia Herbal","","","","","",""
"c604","PT. Medikon Prima Laboratories","","","","","",""
"c605","PT. Meditrika Agung Indonesia","","","","","",""
"c606","PT. Menara Jopurin","","","","","",""
"c607","PT. Mentari Anugerah Sakti","","","","","",""
"c608","PT. Mergana Satwika Isthi","","","","","",""
"c609","PT. Merlindo Rekamatra","","","","","",""
"c610","PT. Merpati Mahardika","","","","","",""
"c611","PT. Minorock Mandiri","","","","","",""
"c612","PT. Miotra Pace","","","","","",""
"c613","PT. Mudita Karuna","","","","","",""
"c614","PT. Mugi Laboratories","","","","","",""
"c615","PT. Murakabi Buana","","","","","",""
"c616","PT. Mustika Putri Deli","","","","","",""
"c617","PT. Mustika Ratu","","","","","",""
"c618","PT. Mutiara Mukti Farma","","","","","",""
"c619","PT. NATA DECOCO UTAMA","","","","","",""
"c620","PT. Nellco Indopharma","","","","","",""
"c621","PT. New Asiapharm","","","","","",""
"c622","PT. Nova Chemie Utama","","","","","",""
"c623","PT. Novell Pharmaceutical Laboratories","","","","","",""
"c624","PT. Nyonya Meneer","","","","","",""
"c625","PT. Nyonya Mipis","","","","","",""
"c626","PT. ORK GOOD HEALTH","","","","","",""
"c627","PT. Payung Pusaka","","","","","",""
"c628","PT. Pertiwi Agung","","","","","",""
"c629","PT. Phapros","","","","","",""
"c630","PT. Pharmacore Laboratories","","","","","",""
"c631","PT. Pharmasi Binangkit","","","","","",""
"c632","PT. Pharmasi Binangkit (PT. Nova Chemie Utama)","","","","","",""
"c633","PT. Pharos Indonesia","","","","","",""
"c634","PT. Phyto Kemo Agung Farma","","","","","",""
"c635","PT. Phyto Sana Laboratories","","","","","",""
"c636","PT. Prima Agritech Nusantara","","","","","",""
"c637","PT. Prima Solusi Medika","","","","","",""
"c638","PT. Promedic Dyna Farma","","","","","",""
"c639","PT. Puri Intirasa","","","","","",""
"c640","PT. Pusaka Leluhur","","","","","",""
"c641","PT. Pusaka Surga","","","","","",""
"c642","PT. Pusut Buhit Barat","","","","","",""
"c643","PT. Putro Kinasih","","","","","",""
"c644","PT. Pyridam Farma Tbk","","","","","",""
"c645","PT. Rajawali Tri Jaya Sukses","","","","","",""
"c646","PT. Rama Farma","","","","","",""
"c647","PT. Rasio Medika Indonesia","","","","","",""
"c648","PT. Risto Mulia","","","","","",""
"c649","PT. Royal Medicalink Pharmalab","","","","","",""
"c650","PT. Ruslindo Anugerah Alam Sejahtera","","","","","",""
"c651","PT. Sahabat Lingkungan Hidup","","","","","",""
"c652","PT. Saka Farma Laboratories","","","","","",""
"c653","PT. Samdema","","","","","",""
"c654","PT. Sandai Farma","","","","","",""
"c655","PT. Saraka Mandiri Semesta","","","","","",""
"c656","PT. Sari Bhumi","","","","","",""
"c657","PT. Sari Bunga Alam Sejati","","","","","",""
"c658","PT. Sari Enesis Indah","","","","","",""
"c659","PT. Sari Gading Pusaka Kalimantan","","","","","",""
"c660","PT. Sari Pusaka","","","","","",""
"c661","PT. Sariguna Primatirta","","","","","",""
"c662","PT. Sarinabati Husada","","","","","",""
"c663","PT. Saroni Milenium Laboratoria","","","","","",""
"c664","PT. Satwa Lestari Permai","","","","","",""
"c665","PT. Seger Waras","","","","","",""
"c666","PT. Sehat Sukses Sejahtera","","","","","",""
"c667","PT. Sekar Delima Indah Abadi","","","","","",""
"c668","PT. Sekarsari Sakti","","","","","",""
"c669","PT. Semar Enam Puluh Berdikari","","","","","",""
"c670","PT. Serasi Indah Sehat","","","","","",""
"c671","PT. Serbuk Manjur","","","","","",""
"c672","PT. Sido Muncul (PT. Nu Trend International)","","","","","",""
"c673","PT. Sidola","","","","","",""
"c674","PT. Sifa Jaya Lestari","","","","","",""
"c675","PT. Simex Pharmaceutical Indonesia","","","","","",""
"c676","PT. Sinabung","","","","","",""
"c677","PT. Sinar Effendi Murni","","","","","",""
"c678","PT. Sinar Herba Radix","","","","","",""
"c679","PT. Sinar Jaya","","","","","",""
"c680","PT. Sinar Kaliman Sehat","","","","","",""
"c681","PT. Sinde Budi Sentosa","","","","","",""
"c682","PT. Sismadi Industri","","","","","",""
"c683","PT. Soho Industri Obat Tradisional","","","","","",""
"c684","PT. Soho Industri Pharmasi","","","","","",""
"c685","PT. Solas Langgeng Sejahtera","","","","","",""
"c686","PT. Solas Langgeng Sejahtera (IOT)","","","","","",""
"c687","PT. Songgolangit Herbal Ind.","","","","","",""
"c688","PT. Sozo Agro Pasti","","","","","",""
"c689","PT. Sumber Budimulia Adiputra","","","","","",""
"c690","PT. Sumber Tanushu","","","","","",""
"c691","PT. Surabaya Indah Permai","","","","","",""
"c692","PT. Surecoindo","","","","","",""
"c693","PT. Surya Coco Jaya","","","","","",""
"c694","PT. Surya Dermato Medica Laboratories","","","","","",""
"c695","PT. Surya Lestari Abadi","","","","","",""
"c696","PT. Surya Pratama Jaya Mandiri","","","","","",""
"c697","PT. Talenta Wijaya","","","","","",""
"c698","PT. Tawon Jaya Makasar","","","","","",""
"c699","PT. Teguhsindo lestaritama","","","","","",""
"c700","PT. Tempo Natural Products","","","","","",""
"c701","PT. Tempo Scan Pacific Tbk","","","","","",""
"c702","PT. Tenaga Tani Farma","","","","","",""
"c703","PT. Terapi Alam Nabati","","","","","",""
"c704","PT. Tifar Admanco","","","","","",""
"c705","PT. Tiga Putra Perkasa Pharmindo","","","","","",""
"c706","PT. Tirtamas Megah","","","","","",""
"c707","PT. Tjahaja Baru","","","","","",""
"c708","PT. Toya Konsep Alam","","","","","",""
"c709","PT. Toyo Brothers","","","","","",""
"c710","PT. Tresno Joyo","","","","","",""
"c711","PT. Trias Sukses Dinamika","","","","","",""
"c712","PT. Trisugo","","","","","",""
"c713","PT. Triyasa Nagamas Farma","","","","","",""
"c714","PT. Trust Pharmaceutical Industries","","","","","",""
"c715","PT. Tulus Indojaya","","","","","",""
"c716","PT. Ultra Prima Abadi","","","","","",""
"c717","PT. Ultratrend Biotech Indonesia","","","","","",""
"c718","PT. Ultratrend Biotech Indonesia (IOT)","","","","","",""
"c719","PT. Unggul Dana Cipta","","","","","",""
"c720","PT. Unique Herbamed Indonesia","","","","","",""
"c721","PT. USFI","","","","","",""
"c722","PT. Vitabiotics Healthcare (PT. Sandoz)","","","","","",""
"c723","PT. Wahida Indonesia","","","","","",""
"c724","PT. Wibowo Padmo Kencono","","","","","",""
"c725","PT. Yanthi Utama","","","","","",""
"c726","PT. YAP Bersatu Pharmaceutical","","","","","",""
"c727","PT. YASEPA","","","","","",""
"c728","PT. Yupharin Pharmaceutical","","","","","",""
"c729","PT.Sandai Farma","","","","","",""
"c730","PT.Tenaga Tani Farma","","","","","",""
"c731","PTIQ Al Furqon","","","","","",""
"c732","PTt. Argo Vico Industri Indonesia","","","","","",""
"c733","Pusaka Wadi Fatmah","","","","","",""
"c734","Pusaka Warisan Madura","","","","","",""
"c735","Puspita Jelita","","","","","",""
"c736","Putra Rakyat Jaya","","","","","",""
"c737","Setia Kawan Abadi","","","","","",""
"c738","Sido Muncul","Jl. Cipete Raya No. 81","Jakarta","Indonesia","12410","6221765 3535","http://www.sidomuncul.com"
"c739","Sriana Milliherbs","","","","","",""
"c740","Tradisi","","","","","",""
"c741","UD. Alam Berkat Sejahtera","","","","","",""
"c742","UD. AM Jaya","","","","","",""
"c743","UD. Aqsho","","","","","",""
"c744","UD. As-Syifa","","","","","",""
"c745","UD. Bali Holistik","","","","","",""
"c746","UD. Bina Raci","","","","","",""
"c747","UD. Cahaya Kasih","","","","","",""
"c748","UD. Cerah Jaya","","","","","",""
"c749","UD. Cipto Angso Duo","","","","","",""
"c750","UD. Citra Alam","","","","","",""
"c751","UD. Ekadenta Putra","","","","","",""
"c752","UD. Hadh","","","","","",""
"c753","UD. Indo Jaya","","","","","",""
"c754","UD. Jamu Subur Jaya","","","","","",""
"c755","UD. Jaya Mandiri","","","","","",""
"c756","UD. Kalimosodo","","","","","",""
"c757","UD. Karya Berdikari","","","","","",""
"c758","UD. Karya Mulia","","","","","",""
"c759","UD. Karya Tehnik","","","","","",""
"c760","UD. Keurejheng Mitapa Merk Gigieng UTG","","","","","",""
"c761","UD. KONDANG","","","","","",""
"c762","UD. Lentera Agung Raya","","","","","",""
"c763","UD. Liye Fasut","","","","","",""
"c764","UD. Naga Jaya","","","","","",""
"c765","UD. Nurhayati","","","","","",""
"c766","UD. Pagoda Mas","","","","","",""
"c767","UD. Putri Kinasih","","","","","",""
"c768","UD. Rahmat","","","","","",""
"c769","UD. Rejeki Jaya","","","","","",""
"c770","UD. Sambiroto","","","","","",""
"c771","UD. Sehat Seger Waras","","","","","",""
"c772","UD. Sidomulyo","","","","","",""
"c773","UD. Sinar Kami","","","","","",""
"c774","UD. Sumatera Pasak Bumi","","","","","",""
"c775","UD. Sumber Songo","","","","","",""
"c776","UD. Tama Karya Mandiri","","","","","",""
"c777","UD. Thibbin Therapi","","","","","",""
"c778","UD. Tugu Agung","","","","","",""
"c779","Usaha Bersama Rio Pinawa","","","","","",""
"c780","Usaha Nuri","","","","","",""
"c781","W 1938 W","","","","","",""
"c782","WD Herbal","","","","","",""
"c783","Yayasan Ath-Thibbun Nabawi","","","","","",""
"c784","Yayasan Hikmah Sejati Yogyakarta","","","","","",""
"c785","Yayasan Sarana Bhakti","","","","","",""
